start=new Date('2023-03-02T00:00:00.000Z').valueOf();
sats=[{"MEAN_ELEMENT_THEORY":"SGP4","DECAY_DATE":null,"MEAN_MOTION":"15.06443542","EPHEMERIS_TYPE":"0","CLASSIFICATION_TYPE":"U","OBJECT_ID":"2021-044AX","NORAD_CAT_ID":"48683","RA_OF_ASC_NODE":"349.8827","REF_FRAME":"TEME","REV_AT_EPOCH":"9793","MEAN_MOTION_DOT":"0.00058737","OBJECT_NAME":"STARLINK-2756","ELEMENT_SET_NO":"999","SITE":"AFETR","ARG_OF_PERICENTER":"97.9258","TIME_SYSTEM":"UTC","MEAN_ANOMALY":"262.1915","RCS_SIZE":"LARGE","COUNTRY_CODE":"US","PERIOD":"95.589","GP_ID":"227317104","TLE_LINE1":"1 48683U 21044AX  23060.19986529  .00058737  00000-0  39248-2 0  9998","APOAPSIS":"548.207","TLE_LINE2":"2 48683  53.0532 349.8827 0001627  97.9258 262.1915 15.06443542 97934","ECCENTRICITY":"0.00016270","EPOCH":"2023-03-01T04:47:48.361056","CENTER_NAME":"EARTH","FILE":"3848834","SEMIMAJOR_AXIS":"6925.215","PERIAPSIS":"545.953","BSTAR":"0.00392480000000","LAUNCH_DATE":"2021-05-26","OBJECT_TYPE":"PAYLOAD","MEAN_MOTION_DDOT":"0.0000000000000","INCLINATION":"53.0532"},{"SEMIMAJOR_AXIS":"6925.557","EPOCH":"2023-03-01T08:31:31.005408","CENTER_NAME":"EARTH","FILE":"3848834","TLE_LINE1":"1 48684U 21044AY  23060.35521997  .00021221  00000-0  14419-2 0  9992","TLE_LINE2":"2 48684  53.0544   4.5326 0001552 105.5965 254.5196 15.06332007 97743","APOAPSIS":"548.497","ECCENTRICITY":"0.00015520","GP_ID":"227317354","INCLINATION":"53.0544","MEAN_MOTION_DDOT":"0.0000000000000","PERIAPSIS":"546.347","BSTAR":"0.00144190000000","LAUNCH_DATE":"2021-05-26","OBJECT_TYPE":"PAYLOAD","MEAN_MOTION_DOT":"0.00021221","OBJECT_NAME":"STARLINK-2741","ELEMENT_SET_NO":"999","OBJECT_ID":"2021-044AY","CLASSIFICATION_TYPE":"U","REF_FRAME":"TEME","NORAD_CAT_ID":"48684","RA_OF_ASC_NODE":"4.5326","REV_AT_EPOCH":"9774","EPHEMERIS_TYPE":"0","MEAN_ELEMENT_THEORY":"SGP4","MEAN_MOTION":"15.06332007","DECAY_DATE":null,"COUNTRY_CODE":"US","PERIOD":"95.596","TIME_SYSTEM":"UTC","MEAN_ANOMALY":"254.5196","RCS_SIZE":"LARGE","SITE":"AFETR","ARG_OF_PERICENTER":"105.5965"},{"RCS_SIZE":"LARGE","MEAN_ANOMALY":"212.9955","TIME_SYSTEM":"UTC","ARG_OF_PERICENTER":"147.1133","SITE":"AFETR","PERIOD":"95.595","COUNTRY_CODE":"US","EPHEMERIS_TYPE":"0","MEAN_MOTION":"15.06356322","DECAY_DATE":null,"MEAN_ELEMENT_THEORY":"SGP4","ELEMENT_SET_NO":"999","OBJECT_NAME":"STARLINK-2751","MEAN_MOTION_DOT":"0.00020502","REV_AT_EPOCH":"9795","REF_FRAME":"TEME","RA_OF_ASC_NODE":"349.4487","NORAD_CAT_ID":"48685","OBJECT_ID":"2021-044AZ","CLASSIFICATION_TYPE":"U","OBJECT_TYPE":"PAYLOAD","LAUNCH_DATE":"2021-05-26","BSTAR":"0.00139290000000","PERIAPSIS":"546.252","INCLINATION":"53.0544","MEAN_MOTION_DDOT":"0.0000000000000","TLE_LINE2":"2 48685  53.0544 349.4487 0001582 147.1133 212.9955 15.06356322 97955","APOAPSIS":"548.443","ECCENTRICITY":"0.00015820","TLE_LINE1":"1 48685U 21044AZ  23060.30309844  .00020502  00000-0  13929-2 0  9999","GP_ID":"227318105","SEMIMAJOR_AXIS":"6925.482","FILE":"3848834","CENTER_NAME":"EARTH","EPOCH":"2023-03-01T07:16:27.705216"},{"TIME_SYSTEM":"UTC","RCS_SIZE":"LARGE","MEAN_ANOMALY":"217.9237","ARG_OF_PERICENTER":"142.1881","SITE":"AFETR","COUNTRY_CODE":"US","PERIOD":"95.596","EPHEMERIS_TYPE":"0","MEAN_ELEMENT_THEORY":"SGP4","DECAY_DATE":null,"MEAN_MOTION":"15.06336039","MEAN_MOTION_DOT":"0.00028535","ELEMENT_SET_NO":"999","OBJECT_NAME":"STARLINK-2629","REF_FRAME":"TEME","RA_OF_ASC_NODE":"354.7159","NORAD_CAT_ID":"48686","CLASSIFICATION_TYPE":"U","OBJECT_ID":"2021-044BA","REV_AT_EPOCH":"9787","BSTAR":"0.00193010000000","PERIAPSIS":"546.143","OBJECT_TYPE":"PAYLOAD","LAUNCH_DATE":"2021-05-26","INCLINATION":"53.0536","MEAN_MOTION_DDOT":"0.0000000000000","TLE_LINE2":"2 48686  53.0536 354.7159 0001829 142.1881 217.9237 15.06336039 97873","APOAPSIS":"548.676","ECCENTRICITY":"0.00018290","TLE_LINE1":"1 48686U 21044BA  23060.29715110  .00028535  00000-0  19301-2 0  9999","GP_ID":"227318852","SEMIMAJOR_AXIS":"6925.545","EPOCH":"2023-03-01T07:07:53.855040","FILE":"3848834","CENTER_NAME":"EARTH"},{"SEMIMAJOR_AXIS":"6925.510","EPOCH":"2023-03-01T06:32:01.498848","FILE":"3848834","CENTER_NAME":"EARTH","TLE_LINE2":"2 48687  53.0556 344.5440 0000691 103.0622 257.0444 15.06347214 98010","APOAPSIS":"547.854","ECCENTRICITY":"0.00006910","TLE_LINE1":"1 48687U 21044BB  23060.27223957  .00014105  00000-0  96530-3 0  9999","GP_ID":"227317604","INCLINATION":"53.0556","MEAN_MOTION_DDOT":"0.0000000000000","BSTAR":"0.00096530000000","PERIAPSIS":"546.897","OBJECT_TYPE":"PAYLOAD","LAUNCH_DATE":"2021-05-26","MEAN_MOTION_DOT":"0.00014105","ELEMENT_SET_NO":"999","OBJECT_NAME":"STARLINK-2627","NORAD_CAT_ID":"48687","RA_OF_ASC_NODE":"344.5440","REF_FRAME":"TEME","CLASSIFICATION_TYPE":"U","OBJECT_ID":"2021-044BB","REV_AT_EPOCH":"9801","EPHEMERIS_TYPE":"0","MEAN_ELEMENT_THEORY":"SGP4","MEAN_MOTION":"15.06347214","DECAY_DATE":null,"COUNTRY_CODE":"US","PERIOD":"95.595","TIME_SYSTEM":"UTC","RCS_SIZE":"LARGE","MEAN_ANOMALY":"257.0444","SITE":"AFETR","ARG_OF_PERICENTER":"103.0622"},{"PERIOD":"95.595","COUNTRY_CODE":"US","RCS_SIZE":"LARGE","MEAN_ANOMALY":"266.1911","TIME_SYSTEM":"UTC","SITE":"AFETR","ARG_OF_PERICENTER":"93.9163","ELEMENT_SET_NO":"999","OBJECT_NAME":"STARLINK-2742","MEAN_MOTION_DOT":"0.00008768","REV_AT_EPOCH":"9801","REF_FRAME":"TEME","NORAD_CAT_ID":"48688","RA_OF_ASC_NODE":"344.5295","CLASSIFICATION_TYPE":"U","OBJECT_ID":"2021-044BC","EPHEMERIS_TYPE":"0","DECAY_DATE":null,"MEAN_MOTION":"15.06353060","MEAN_ELEMENT_THEORY":"SGP4","INCLINATION":"53.0537","MEAN_MOTION_DDOT":"0.0000000000000","OBJECT_TYPE":"PAYLOAD","LAUNCH_DATE":"2021-05-26","BSTAR":"0.00060756000000","PERIAPSIS":"546.840","SEMIMAJOR_AXIS":"6925.492","FILE":"3848834","CENTER_NAME":"EARTH","EPOCH":"2023-03-01T06:37:19.557120","TLE_LINE2":"2 48688  53.0537 344.5295 0000747  93.9163 266.1911 15.06353060 98013","APOAPSIS":"547.875","ECCENTRICITY":"0.00007470","TLE_LINE1":"1 48688U 21044BC  23060.27592080  .00008768  00000-0  60756-3 0  9995","GP_ID":"227317854"},{"MEAN_MOTION_DDOT":"0.0000000000000","INCLINATION":"53.0530","PERIAPSIS":"546.456","BSTAR":"0.00221290000000","LAUNCH_DATE":"2021-05-26","OBJECT_TYPE":"PAYLOAD","EPOCH":"2023-03-01T21:04:28.511328","CENTER_NAME":"EARTH","FILE":"3848834","SEMIMAJOR_AXIS":"6925.350","GP_ID":"227318605","TLE_LINE1":"1 48689U 21044BD  23060.87810777  .00032833  00000-0  22129-2 0  9999","TLE_LINE2":"2 48689  53.0530 346.7984 0001096 117.4345 242.6755 15.06399684 98037","APOAPSIS":"547.974","ECCENTRICITY":"0.00010960","COUNTRY_CODE":"US","PERIOD":"95.592","ARG_OF_PERICENTER":"117.4345","SITE":"AFETR","TIME_SYSTEM":"UTC","MEAN_ANOMALY":"242.6755","RCS_SIZE":"LARGE","CLASSIFICATION_TYPE":"U","OBJECT_ID":"2021-044BD","NORAD_CAT_ID":"48689","REF_FRAME":"TEME","RA_OF_ASC_NODE":"346.7984","REV_AT_EPOCH":"9803","MEAN_MOTION_DOT":"0.00032833","OBJECT_NAME":"STARLINK-2617","ELEMENT_SET_NO":"999","MEAN_ELEMENT_THEORY":"SGP4","MEAN_MOTION":"15.06399684","DECAY_DATE":null,"EPHEMERIS_TYPE":"0"},{"SEMIMAJOR_AXIS":"6925.401","CENTER_NAME":"EARTH","FILE":"3848834","EPOCH":"2023-03-01T06:53:55.021632","TLE_LINE1":"1 48690U 21044BE  23060.28744238  .00026312  00000-0  17795-2 0  9992","TLE_LINE2":"2 48690  53.0549 359.4755 0002102 156.6079 203.5006 15.06383029 97809","APOAPSIS":"548.721","ECCENTRICITY":"0.00021020","GP_ID":"227318353","INCLINATION":"53.0549","MEAN_MOTION_DDOT":"0.0000000000000","LAUNCH_DATE":"2021-05-26","OBJECT_TYPE":"PAYLOAD","PERIAPSIS":"545.810","BSTAR":"0.00177950000000","OBJECT_NAME":"STARLINK-2740","ELEMENT_SET_NO":"999","MEAN_MOTION_DOT":"0.00026312","REV_AT_EPOCH":"9780","OBJECT_ID":"2021-044BE","CLASSIFICATION_TYPE":"U","RA_OF_ASC_NODE":"359.4755","NORAD_CAT_ID":"48690","REF_FRAME":"TEME","EPHEMERIS_TYPE":"0","DECAY_DATE":null,"MEAN_MOTION":"15.06383029","MEAN_ELEMENT_THEORY":"SGP4","PERIOD":"95.593","COUNTRY_CODE":"US","MEAN_ANOMALY":"203.5006","RCS_SIZE":"LARGE","TIME_SYSTEM":"UTC","ARG_OF_PERICENTER":"156.6079","SITE":"AFETR"},{"COUNTRY_CODE":"US","PERIOD":"95.596","SITE":"AFETR","ARG_OF_PERICENTER":"64.4368","TIME_SYSTEM":"UTC","MEAN_ANOMALY":"295.6756","RCS_SIZE":"LARGE","OBJECT_ID":"2021-044BF","CLASSIFICATION_TYPE":"U","RA_OF_ASC_NODE":"354.3018","NORAD_CAT_ID":"48691","REF_FRAME":"TEME","REV_AT_EPOCH":"9788","MEAN_MOTION_DOT":"0.00005491","OBJECT_NAME":"STARLINK-2750","ELEMENT_SET_NO":"999","MEAN_ELEMENT_THEORY":"SGP4","DECAY_DATE":null,"MEAN_MOTION":"15.06344549","EPHEMERIS_TYPE":"0","MEAN_MOTION_DDOT":"0.0000000000000","INCLINATION":"53.0536","PERIAPSIS":"546.473","BSTAR":"0.00038779000000","LAUNCH_DATE":"2021-05-26","OBJECT_TYPE":"PAYLOAD","EPOCH":"2023-03-01T07:50:18.710880","CENTER_NAME":"EARTH","FILE":"3848834","SEMIMAJOR_AXIS":"6925.519","GP_ID":"227317105","TLE_LINE1":"1 48691U 21044BF  23060.32660545  .00005491  00000-0  38779-3 0  9997","TLE_LINE2":"2 48691  53.0536 354.3018 0001314  64.4368 295.6756 15.06344549 97889","APOAPSIS":"548.294","ECCENTRICITY":"0.00013140"},{"SITE":"AFETR","ARG_OF_PERICENTER":"69.1788","TIME_SYSTEM":"UTC","MEAN_ANOMALY":"290.9270","RCS_SIZE":"LARGE","COUNTRY_CODE":"US","PERIOD":"95.595","MEAN_ELEMENT_THEORY":"SGP4","MEAN_MOTION":"15.06349623","DECAY_DATE":null,"EPHEMERIS_TYPE":"0","CLASSIFICATION_TYPE":"U","OBJECT_ID":"2021-044BG","REF_FRAME":"TEME","RA_OF_ASC_NODE":"354.4950","NORAD_CAT_ID":"48692","REV_AT_EPOCH":"9788","MEAN_MOTION_DOT":"0.00036286","OBJECT_NAME":"STARLINK-2752","ELEMENT_SET_NO":"999","PERIAPSIS":"546.918","BSTAR":"0.00244570000000","LAUNCH_DATE":"2021-05-26","OBJECT_TYPE":"PAYLOAD","MEAN_MOTION_DDOT":"0.0000000000000","INCLINATION":"53.0544","GP_ID":"227317355","TLE_LINE1":"1 48692U 21044BG  23060.31187601  .00036286  00000-0  24457-2 0  9997","TLE_LINE2":"2 48692  53.0544 354.4950 0000649  69.1788 290.9270 15.06349623 97880","APOAPSIS":"547.817","ECCENTRICITY":"0.00006490","EPOCH":"2023-03-01T07:29:06.087264","CENTER_NAME":"EARTH","FILE":"3848834","SEMIMAJOR_AXIS":"6925.503"}];
